{
  "type": "FeatureCollection",
  "features": [
    {
      "type": "Feature",
      "properties": {
        "norad_id": 38833,
        "name": "GPS BIIF-3  (PRN 24)",
        "group": "gps-ops",
        "lat": -35.155571359049745,
        "lon": 120.26056055380589,
        "alt_km": 20335.696697461,
        "timestamp": "2025-12-02T19:35:50.814889+00:00",
        "meta_object_name": "GPS BIIF-3  (PRN 24)",
        "meta_object_id": "2012-053A",
        "meta_epoch": "2025-12-01T21:10:58.228896",
        "meta_mean_motion": 2.00564835,
        "meta_eccentricity": 0.01754817,
        "meta_inclination": 53.5559,
        "meta_ra_of_asc_node": 151.6834,
        "meta_arg_of_pericenter": 63.8436,
        "meta_mean_anomaly": 297.9871,
        "meta_ephemeris_type": 0,
        "meta_classification_type": "U",
        "meta_norad_cat_id": 38833,
        "meta_element_set_no": 999,
        "meta_rev_at_epoch": 9548,
        "meta_bstar": 0,
        "meta_mean_motion_dot": 1.16e-06,
        "meta_mean_motion_ddot": 0,
        "tle_line1": "1 38833U 12053A   25335.88261839  .00000116  00000+0  00000+0 0  9995",
        "tle_line2": "2 38833  53.5559 151.6834 0175481  63.8436 297.9871  2.00564835 95485"
      },
      "geometry": {
        "type": "Point",
        "coordinates": [
          120.26056055380589,
          -35.155571359049745
        ]
      }
    },
    {
      "type": "Feature",
      "properties": {
        "norad_id": 39166,
        "name": "GPS BIIF-4  (PRN 27)",
        "group": "gps-ops",
        "lat": 41.29691685513459,
        "lon": -44.55080117553111,
        "alt_km": 19814.763998979324,
        "timestamp": "2025-12-02T19:35:50.814900+00:00",
        "meta_object_name": "GPS BIIF-4  (PRN 27)",
        "meta_object_id": "2013-023A",
        "meta_epoch": "2025-12-01T17:54:55.988640",
        "meta_mean_motion": 2.00565053,
        "meta_eccentricity": 0.0137237,
        "meta_inclination": 54.6617,
        "meta_ra_of_asc_node": 277.0152,
        "meta_arg_of_pericenter": 48.4926,
        "meta_mean_anomaly": 312.6731,
        "meta_ephemeris_type": 0,
        "meta_classification_type": "U",
        "meta_norad_cat_id": 39166,
        "meta_element_set_no": 999,
        "meta_rev_at_epoch": 9192,
        "meta_bstar": 0,
        "meta_mean_motion_dot": -4e-07,
        "meta_mean_motion_ddot": 0,
        "tle_line1": "1 39166U 13023A   25335.74648135 -.00000040  00000+0  00000+0 0  9993",
        "tle_line2": "2 39166  54.6617 277.0152 0137237  48.4926 312.6731  2.00565053 91926"
      },
      "geometry": {
        "type": "Point",
        "coordinates": [
          -44.55080117553111,
          41.29691685513459
        ]
      }
    },
    {
      "type": "Feature",
      "properties": {
        "norad_id": 39533,
        "name": "GPS BIIF-5  (PRN 30)",
        "group": "gps-ops",
        "lat": 41.72315631235339,
        "lon": -161.56817077050943,
        "alt_km": 20383.09859367318,
        "timestamp": "2025-12-02T19:35:50.814912+00:00",
        "meta_object_name": "GPS BIIF-5  (PRN 30)",
        "meta_object_id": "2014-008A",
        "meta_epoch": "2025-12-01T17:47:12.744672",
        "meta_mean_motion": 2.00573724,
        "meta_eccentricity": 0.00789385,
        "meta_inclination": 53.6295,
        "meta_ra_of_asc_node": 157.3734,
        "meta_arg_of_pericenter": 226.3523,
        "meta_mean_anomaly": 133.0366,
        "meta_ephemeris_type": 0,
        "meta_classification_type": "U",
        "meta_norad_cat_id": 39533,
        "meta_element_set_no": 999,
        "meta_rev_at_epoch": 8572,
        "meta_bstar": 0,
        "meta_mean_motion_dot": 1.22e-06,
        "meta_mean_motion_ddot": 0,
        "tle_line1": "1 39533U 14008A   25335.74111973  .00000122  00000+0  00000+0 0  9990",
        "tle_line2": "2 39533  53.6295 157.3734 0078938 226.3523 133.0366  2.00573724 85727"
      },
      "geometry": {
        "type": "Point",
        "coordinates": [
          -161.56817077050943,
          41.72315631235339
        ]
      }
    },
    {
      "type": "Feature",
      "properties": {
        "norad_id": 39741,
        "name": "GPS BIIF-6  (PRN 06)",
        "group": "gps-ops",
        "lat": -26.19198438693213,
        "lon": 178.11358902798918,
        "alt_km": 20214.052998672705,
        "timestamp": "2025-12-02T19:35:50.814923+00:00",
        "meta_object_name": "GPS BIIF-6  (PRN 06)",
        "meta_object_id": "2014-026A",
        "meta_epoch": "2025-12-02T00:33:52.471872",
        "meta_mean_motion": 2.00561967,
        "meta_eccentricity": 0.0038874,
        "meta_inclination": 56.5877,
        "meta_ra_of_asc_node": 339.1935,
        "meta_arg_of_pericenter": 318.1074,
        "meta_mean_anomaly": 41.6257,
        "meta_ephemeris_type": 0,
        "meta_classification_type": "U",
        "meta_norad_cat_id": 39741,
        "meta_element_set_no": 999,
        "meta_rev_at_epoch": 8458,
        "meta_bstar": 0,
        "meta_mean_motion_dot": -5.7e-07,
        "meta_mean_motion_ddot": 0,
        "tle_line1": "1 39741U 14026A   25336.02352398 -.00000057  00000+0  00000+0 0  9999",
        "tle_line2": "2 39741  56.5877 339.1935 0038874 318.1074  41.6257  2.00561967 84587"
      },
      "geometry": {
        "type": "Point",
        "coordinates": [
          178.11358902798918,
          -26.19198438693213
        ]
      }
    },
    {
      "type": "Feature",
      "properties": {
        "norad_id": 40105,
        "name": "GPS BIIF-7  (PRN 09)",
        "group": "gps-ops",
        "lat": 24.6030890448678,
        "lon": -102.25806500202334,
        "alt_km": 20102.54069946323,
        "timestamp": "2025-12-02T19:35:50.814935+00:00",
        "meta_object_name": "GPS BIIF-7  (PRN 09)",
        "meta_object_id": "2014-045A",
        "meta_epoch": "2025-12-01T02:44:59.048448",
        "meta_mean_motion": 2.00571745,
        "meta_eccentricity": 0.00329481,
        "meta_inclination": 55.2216,
        "meta_ra_of_asc_node": 96.3629,
        "meta_arg_of_pericenter": 119.5842,
        "meta_mean_anomaly": 240.7262,
        "meta_ephemeris_type": 0,
        "meta_classification_type": "U",
        "meta_norad_cat_id": 40105,
        "meta_element_set_no": 999,
        "meta_rev_at_epoch": 8210,
        "meta_bstar": 0,
        "meta_mean_motion_dot": 1.8e-07,
        "meta_mean_motion_ddot": 0,
        "tle_line1": "1 40105U 14045A   25335.11457232  .00000018  00000+0  00000+0 0  9994",
        "tle_line2": "2 40105  55.2216  96.3629 0032948 119.5842 240.7262  2.00571745 82109"
      },
      "geometry": {
        "type": "Point",
        "coordinates": [
          -102.25806500202334,
          24.6030890448678
        ]
      }
    },
    {
      "type": "Feature",
      "properties": {
        "norad_id": 40294,
        "name": "GPS BIIF-8  (PRN 03)",
        "group": "gps-ops",
        "lat": -45.45735230236343,
        "lon": -99.90261825945834,
        "alt_km": 20346.098679295457,
        "timestamp": "2025-12-02T19:35:50.814947+00:00",
        "meta_object_name": "GPS BIIF-8  (PRN 03)",
        "meta_object_id": "2014-068A",
        "meta_epoch": "2025-12-01T11:46:15.010464",
        "meta_mean_motion": 2.00563998,
        "meta_eccentricity": 0.00608279,
        "meta_inclination": 56.849,
        "meta_ra_of_asc_node": 38.5813,
        "meta_arg_of_pericenter": 69.4379,
        "meta_mean_anomaly": 291.2622,
        "meta_ephemeris_type": 0,
        "meta_classification_type": "U",
        "meta_norad_cat_id": 40294,
        "meta_element_set_no": 999,
        "meta_rev_at_epoch": 8124,
        "meta_bstar": 0,
        "meta_mean_motion_dot": -6.4e-07,
        "meta_mean_motion_ddot": 0,
        "tle_line1": "1 40294U 14068A   25335.49045151 -.00000064  00000+0  00000+0 0  9994",
        "tle_line2": "2 40294  56.8490  38.5813 0060827  69.4379 291.2622  2.00563998 81243"
      },
      "geometry": {
        "type": "Point",
        "coordinates": [
          -99.90261825945834,
          -45.45735230236343
        ]
      }
    },
    {
      "type": "Feature",
      "properties": {
        "norad_id": 40534,
        "name": "GPS BIIF-9  (PRN 26)",
        "group": "gps-ops",
        "lat": 26.935653953829853,
        "lon": 9.974128327719663,
        "alt_km": 20260.36055411371,
        "timestamp": "2025-12-02T19:35:50.814958+00:00",
        "meta_object_name": "GPS BIIF-9  (PRN 26)",
        "meta_object_id": "2015-013A",
        "meta_epoch": "2025-12-01T02:55:38.238240",
        "meta_mean_motion": 2.00563184,
        "meta_eccentricity": 0.01065399,
        "meta_inclination": 53.1998,
        "meta_ra_of_asc_node": 212.3715,
        "meta_arg_of_pericenter": 38.192,
        "meta_mean_anomaly": 322.6465,
        "meta_ephemeris_type": 0,
        "meta_classification_type": "U",
        "meta_norad_cat_id": 40534,
        "meta_element_set_no": 999,
        "meta_rev_at_epoch": 7785,
        "meta_bstar": 0,
        "meta_mean_motion_dot": 6.6e-07,
        "meta_mean_motion_ddot": 0,
        "tle_line1": "1 40534U 15013A   25335.12197035  .00000066  00000+0  00000+0 0  9992",
        "tle_line2": "2 40534  53.1998 212.3715 0106539  38.1920 322.6465  2.00563184 77855"
      },
      "geometry": {
        "type": "Point",
        "coordinates": [
          9.974128327719663,
          26.935653953829853
        ]
      }
    }
  ]
}